CCSDS_OMM_VERS = 2.0
CREATION_DATE  = 
ORIGINATOR     = 

OBJECT_NAME    = ISS (ZARYA)
OBJECT_ID      = 1998-067A
CENTER_NAME    = EARTH
REF_FRAME      = TEME
TIME_SYSTEM    = UTC
MEAN_ELEMENT_THEORY = SGP/SGP4

EPOCH          = 2025-11-23T06:06:23.877792
MEAN_MOTION    = 15.49011795
ECCENTRICITY   = .0003907
INCLINATION    = 51.6318
RA_OF_ASC_NODE = 238.9250
ARG_OF_PERICENTER = 158.5410
MEAN_ANOMALY   = 201.5743

EPHEMERIS_TYPE = 0
CLASSIFICATION_TYPE = U
NORAD_CAT_ID   = 25544
ELEMENT_SET_NO = 999
REV_AT_EPOCH   = 53983
BSTAR          = .2541E-3
MEAN_MOTION_DOT = .13581E-3
MEAN_MOTION_DDOT = 0

CCSDS_OMM_VERS = 2.0
CREATION_DATE  = 
ORIGINATOR     = 

OBJECT_NAME    = CSS (TIANHE)
OBJECT_ID      = 2021-035A
CENTER_NAME    = EARTH
REF_FRAME      = TEME
TIME_SYSTEM    = UTC
MEAN_ELEMENT_THEORY = SGP/SGP4

EPOCH          = 2025-11-23T11:48:11.398176
MEAN_MOTION    = 15.59482397
ECCENTRICITY   = .0007945
INCLINATION    = 41.4658
RA_OF_ASC_NODE = 133.4631
ARG_OF_PERICENTER = 223.8516
MEAN_ANOMALY   = 136.1692

EPHEMERIS_TYPE = 0
CLASSIFICATION_TYPE = U
NORAD_CAT_ID   = 48274
ELEMENT_SET_NO = 999
REV_AT_EPOCH   = 26102
BSTAR          = .25428E-3
MEAN_MOTION_DOT = .2048E-3
MEAN_MOTION_DDOT = 0

CCSDS_OMM_VERS = 2.0
CREATION_DATE  = 
ORIGINATOR     = 

OBJECT_NAME    = ISS (NAUKA)
OBJECT_ID      = 2021-066A
CENTER_NAME    = EARTH
REF_FRAME      = TEME
TIME_SYSTEM    = UTC
MEAN_ELEMENT_THEORY = SGP/SGP4

EPOCH          = 2025-11-23T04:33:29.811168
MEAN_MOTION    = 15.49010020
ECCENTRICITY   = .00039038
INCLINATION    = 51.6318
RA_OF_ASC_NODE = 239.2442
ARG_OF_PERICENTER = 158.2569
MEAN_ANOMALY   = 201.8586

EPHEMERIS_TYPE = 0
CLASSIFICATION_TYPE = U
NORAD_CAT_ID   = 49044
ELEMENT_SET_NO = 999
REV_AT_EPOCH   = 23044
BSTAR          = .2556993E-3
MEAN_MOTION_DOT = .13668E-3
MEAN_MOTION_DDOT = 0

CCSDS_OMM_VERS = 2.0
CREATION_DATE  = 
ORIGINATOR     = 

OBJECT_NAME    = FREGAT DEB
OBJECT_ID      = 2011-037PF
CENTER_NAME    = EARTH
REF_FRAME      = TEME
TIME_SYSTEM    = UTC
MEAN_ELEMENT_THEORY = SGP/SGP4

EPOCH          = 2025-11-23T05:16:09.571872
MEAN_MOTION    = 12.34213421
ECCENTRICITY   = .0873795
INCLINATION    = 51.6175
RA_OF_ASC_NODE = 257.1613
ARG_OF_PERICENTER = 181.6854
MEAN_ANOMALY   = 178.0981

EPHEMERIS_TYPE = 0
CLASSIFICATION_TYPE = U
NORAD_CAT_ID   = 49271
ELEMENT_SET_NO = 999
REV_AT_EPOCH   = 19952
BSTAR          = .18984E-1
MEAN_MOTION_DOT = .8666E-4
MEAN_MOTION_DDOT = 0

CCSDS_OMM_VERS = 2.0
CREATION_DATE  = 
ORIGINATOR     = 

OBJECT_NAME    = CSS (WENTIAN)
OBJECT_ID      = 2022-085A
CENTER_NAME    = EARTH
REF_FRAME      = TEME
TIME_SYSTEM    = UTC
MEAN_ELEMENT_THEORY = SGP/SGP4

EPOCH          = 2025-11-23T04:07:05.871936
MEAN_MOTION    = 15.59470569
ECCENTRICITY   = .00079057
INCLINATION    = 41.4657
RA_OF_ASC_NODE = 135.4079
ARG_OF_PERICENTER = 222.0622
MEAN_ANOMALY   = 137.9610

EPHEMERIS_TYPE = 0
CLASSIFICATION_TYPE = U
NORAD_CAT_ID   = 53239
ELEMENT_SET_NO = 999
REV_AT_EPOCH   = 17384
BSTAR          = .27132741E-3
MEAN_MOTION_DOT = .21869E-3
MEAN_MOTION_DDOT = 0

CCSDS_OMM_VERS = 2.0
CREATION_DATE  = 
ORIGINATOR     = 

OBJECT_NAME    = CSS (MENGTIAN)
OBJECT_ID      = 2022-143A
CENTER_NAME    = EARTH
REF_FRAME      = TEME
TIME_SYSTEM    = UTC
MEAN_ELEMENT_THEORY = SGP/SGP4

EPOCH          = 2025-11-23T04:07:05.871936
MEAN_MOTION    = 15.59470569
ECCENTRICITY   = .00079057
INCLINATION    = 41.4657
RA_OF_ASC_NODE = 135.4079
ARG_OF_PERICENTER = 222.0622
MEAN_ANOMALY   = 137.9610

EPHEMERIS_TYPE = 0
CLASSIFICATION_TYPE = U
NORAD_CAT_ID   = 54216
ELEMENT_SET_NO = 999
REV_AT_EPOCH   = 15864
BSTAR          = .27132741E-3
MEAN_MOTION_DOT = .21869E-3
MEAN_MOTION_DDOT = 0

CCSDS_OMM_VERS = 2.0
CREATION_DATE  = 
ORIGINATOR     = 

OBJECT_NAME    = SOYUZ-MS 27
OBJECT_ID      = 2025-072A
CENTER_NAME    = EARTH
REF_FRAME      = TEME
TIME_SYSTEM    = UTC
MEAN_ELEMENT_THEORY = SGP/SGP4

EPOCH          = 2025-11-23T04:33:29.811168
MEAN_MOTION    = 15.49010020
ECCENTRICITY   = .00039038
INCLINATION    = 51.6318
RA_OF_ASC_NODE = 239.2442
ARG_OF_PERICENTER = 158.2569
MEAN_ANOMALY   = 201.8586

EPHEMERIS_TYPE = 0
CLASSIFICATION_TYPE = U
NORAD_CAT_ID   = 63520
ELEMENT_SET_NO = 999
REV_AT_EPOCH   = 2020
BSTAR          = .2556993E-3
MEAN_MOTION_DOT = .13668E-3
MEAN_MOTION_DDOT = 0

CCSDS_OMM_VERS = 2.0
CREATION_DATE  = 
ORIGINATOR     = 

OBJECT_NAME    = SHENZHOU-20 (SZ-20)
OBJECT_ID      = 2025-082A
CENTER_NAME    = EARTH
REF_FRAME      = TEME
TIME_SYSTEM    = UTC
MEAN_ELEMENT_THEORY = SGP/SGP4

EPOCH          = 2025-11-23T04:07:05.871936
MEAN_MOTION    = 15.59470569
ECCENTRICITY   = .00079057
INCLINATION    = 41.4657
RA_OF_ASC_NODE = 135.4079
ARG_OF_PERICENTER = 222.0622
MEAN_ANOMALY   = 137.9610

EPHEMERIS_TYPE = 0
CLASSIFICATION_TYPE = U
NORAD_CAT_ID   = 63632
ELEMENT_SET_NO = 999
REV_AT_EPOCH   = 25530
BSTAR          = .27132741E-3
MEAN_MOTION_DOT = .21869E-3
MEAN_MOTION_DDOT = 0

CCSDS_OMM_VERS = 2.0
CREATION_DATE  = 
ORIGINATOR     = 

OBJECT_NAME    = PROGRESS-MS 31
OBJECT_ID      = 2025-146A
CENTER_NAME    = EARTH
REF_FRAME      = TEME
TIME_SYSTEM    = UTC
MEAN_ELEMENT_THEORY = SGP/SGP4

EPOCH          = 2025-11-23T04:33:29.811168
MEAN_MOTION    = 15.49010020
ECCENTRICITY   = .00039038
INCLINATION    = 51.6318
RA_OF_ASC_NODE = 239.2442
ARG_OF_PERICENTER = 158.2569
MEAN_ANOMALY   = 201.8586

EPHEMERIS_TYPE = 0
CLASSIFICATION_TYPE = U
NORAD_CAT_ID   = 64751
ELEMENT_SET_NO = 999
REV_AT_EPOCH   = 675
BSTAR          = .2556993E-3
MEAN_MOTION_DOT = .13668E-3
MEAN_MOTION_DDOT = 0

CCSDS_OMM_VERS = 2.0
CREATION_DATE  = 
ORIGINATOR     = 

OBJECT_NAME    = TIANZHOU-9
OBJECT_ID      = 2025-149A
CENTER_NAME    = EARTH
REF_FRAME      = TEME
TIME_SYSTEM    = UTC
MEAN_ELEMENT_THEORY = SGP/SGP4

EPOCH          = 2025-11-23T04:07:05.871936
MEAN_MOTION    = 15.59470569
ECCENTRICITY   = .00079057
INCLINATION    = 41.4657
RA_OF_ASC_NODE = 135.4079
ARG_OF_PERICENTER = 222.0622
MEAN_ANOMALY   = 137.9610

EPHEMERIS_TYPE = 0
CLASSIFICATION_TYPE = U
NORAD_CAT_ID   = 64786
ELEMENT_SET_NO = 999
REV_AT_EPOCH   = 25530
BSTAR          = .27132741E-3
MEAN_MOTION_DOT = .21869E-3
MEAN_MOTION_DDOT = 0

CCSDS_OMM_VERS = 2.0
CREATION_DATE  = 
ORIGINATOR     = 

OBJECT_NAME    = CREW DRAGON 11
OBJECT_ID      = 2025-166A
CENTER_NAME    = EARTH
REF_FRAME      = TEME
TIME_SYSTEM    = UTC
MEAN_ELEMENT_THEORY = SGP/SGP4

EPOCH          = 2025-11-23T04:33:29.811168
MEAN_MOTION    = 15.49010020
ECCENTRICITY   = .00039038
INCLINATION    = 51.6318
RA_OF_ASC_NODE = 239.2442
ARG_OF_PERICENTER = 158.2569
MEAN_ANOMALY   = 201.8586

EPHEMERIS_TYPE = 0
CLASSIFICATION_TYPE = U
NORAD_CAT_ID   = 65077
ELEMENT_SET_NO = 999
REV_AT_EPOCH   = 214
BSTAR          = .2556993E-3
MEAN_MOTION_DOT = .13668E-3
MEAN_MOTION_DDOT = 0

CCSDS_OMM_VERS = 2.0
CREATION_DATE  = 
ORIGINATOR     = 

OBJECT_NAME    = DRAGON CRS-33
OBJECT_ID      = 2025-186A
CENTER_NAME    = EARTH
REF_FRAME      = TEME
TIME_SYSTEM    = UTC
MEAN_ELEMENT_THEORY = SGP/SGP4

EPOCH          = 2025-11-23T04:33:29.811168
MEAN_MOTION    = 15.49010020
ECCENTRICITY   = .00039038
INCLINATION    = 51.6318
RA_OF_ASC_NODE = 239.2442
ARG_OF_PERICENTER = 158.2569
MEAN_ANOMALY   = 201.8586

EPHEMERIS_TYPE = 0
CLASSIFICATION_TYPE = U
NORAD_CAT_ID   = 65304
ELEMENT_SET_NO = 999
REV_AT_EPOCH   = 11
BSTAR          = .2556993E-3
MEAN_MOTION_DOT = .13668E-3
MEAN_MOTION_DDOT = 0

