ISS (ZARYA)             
1 25544U 98067A   25327.25444303  .00013581  00000+0  25410-3 0  9996
2 25544  51.6318 238.9250 0003907 158.5410 201.5743 15.49011795539830
CSS (TIANHE)            
1 48274U 21035A   25327.49179859  .00020480  00000+0  25428-3 0  9994
2 48274  41.4658 133.4631 0007945 223.8516 136.1692 15.59482397261020
ISS (NAUKA)             
1 49044U 21066A   25327.18992837  .00013668  00000+0  25570-3 0  9997
2 49044  51.6318 239.2442 0003903 158.2569 201.8586 15.49010020230449
FREGAT DEB              
1 49271U 11037PF  25327.21955523  .00008666  00000+0  18984-1 0  9992
2 49271  51.6175 257.1613 0873795 181.6854 178.0981 12.34213421199520
CSS (WENTIAN)           
1 53239U 22085A   25327.17159574  .00021869  00000+0  27133-3 0  9991
2 53239  41.4657 135.4079 0007905 222.0622 137.9610 15.59470569173848
CSS (MENGTIAN)          
1 54216U 22143A   25327.17159574  .00021869  00000+0  27133-3 0  9992
2 54216  41.4657 135.4079 0007905 222.0622 137.9610 15.59470569158645
SOYUZ-MS 27             
1 63520U 25072A   25327.18992837  .00013668  00000+0  25570-3 0  9993
2 63520  51.6318 239.2442 0003903 158.2569 201.8586 15.49010020 20205
SHENZHOU-20 (SZ-20)     
1 63632U 25082A   25327.17159574  .00021869  00000+0  27133-3 0  9999
2 63632  41.4657 135.4079 0007905 222.0622 137.9610 15.59470569255308
PROGRESS-MS 31          
1 64751U 25146A   25327.18992837  .00013668  00000+0  25570-3 0  9992
2 64751  51.6318 239.2442 0003903 158.2569 201.8586 15.49010020  6756
TIANZHOU-9              
1 64786U 25149A   25327.17159574  .00021869  00000+0  27133-3 0  9994
2 64786  41.4657 135.4079 0007905 222.0622 137.9610 15.59470569255309
CREW DRAGON 11          
1 65077U 25166A   25327.18992837  .00013668  00000+0  25570-3 0  9996
2 65077  51.6318 239.2442 0003903 158.2569 201.8586 15.49010020  2147
DRAGON CRS-33           
1 65304U 25186A   25327.18992837  .00013668  00000+0  25570-3 0  9991
2 65304  51.6318 239.2442 0003903 158.2569 201.8586 15.49010020   115
